start=new Date('2022-06-25T00:00:00.000Z').valueOf();
sats=[{"CENTER_NAME":"EARTH","REF_FRAME":"TEME","GP_ID":"206789453","MEAN_MOTION_DDOT":"0.0000000000000","SEMIMAJOR_AXIS":"6917.893","TLE_LINE2":"2 49442  53.2159 167.5546 0003082  43.8453 316.2783 15.08835765 34504","CLASSIFICATION_TYPE":"U","BSTAR":"-0.00004426900000","ELEMENT_SET_NO":"999","OBJECT_ID":"2021-104AL","APOAPSIS":"541.890","COUNTRY_CODE":"US","MEAN_ANOMALY":"316.2783","NORAD_CAT_ID":"49442","MEAN_MOTION":"15.08835765","ECCENTRICITY":"0.00030820","OBJECT_TYPE":"PAYLOAD","EPHEMERIS_TYPE":"0","DECAY_DATE":null,"OBJECT_NAME":"STARLINK-3098","SITE":"AFETR","MEAN_MOTION_DOT":"-0.00000993","LAUNCH_DATE":"2021-11-13","TIME_SYSTEM":"UTC","MEAN_ELEMENT_THEORY":"SGP4","PERIOD":"95.438","RA_OF_ASC_NODE":"167.5546","TLE_LINE1":"1 49442U 21104AL  22175.67101918 -.00000993  00000-0 -44269-4 0  9993","REV_AT_EPOCH":"3450","INCLINATION":"53.2159","FILE":"3501798","PERIAPSIS":"537.626","ARG_OF_PERICENTER":"43.8453","EPOCH":"2022-06-24T16:06:16.057152","RCS_SIZE":"LARGE"},{"OBJECT_ID":"2021-104AM","BSTAR":"-0.00005003400000","ELEMENT_SET_NO":"999","COUNTRY_CODE":"US","APOAPSIS":"541.859","CLASSIFICATION_TYPE":"U","NORAD_CAT_ID":"49443","MEAN_ANOMALY":"319.9492","CENTER_NAME":"EARTH","MEAN_MOTION_DDOT":"0.0000000000000","GP_ID":"206757044","TLE_LINE2":"2 49443  53.2189 168.8254 0003054  40.1726 319.9492 15.08839546 34463","SEMIMAJOR_AXIS":"6917.882","REF_FRAME":"TEME","TLE_LINE1":"1 49443U 21104AM  22175.38766078 -.00001085  00000-0 -50034-4 0  9996","PERIOD":"95.438","MEAN_ELEMENT_THEORY":"SGP4","RA_OF_ASC_NODE":"168.8254","INCLINATION":"53.2189","REV_AT_EPOCH":"3446","MEAN_MOTION_DOT":"-0.00001085","LAUNCH_DATE":"2021-11-13","TIME_SYSTEM":"UTC","EPOCH":"2022-06-24T09:18:13.891392","RCS_SIZE":"LARGE","FILE":"3501501","ARG_OF_PERICENTER":"40.1726","PERIAPSIS":"537.634","OBJECT_TYPE":"PAYLOAD","MEAN_MOTION":"15.08839546","ECCENTRICITY":"0.00030540","SITE":"AFETR","DECAY_DATE":null,"EPHEMERIS_TYPE":"0","OBJECT_NAME":"STARLINK-3136"},{"NORAD_CAT_ID":"49444","MEAN_ANOMALY":"318.9195","BSTAR":"-0.00004159300000","ELEMENT_SET_NO":"999","OBJECT_ID":"2021-104AN","APOAPSIS":"541.812","COUNTRY_CODE":"US","CLASSIFICATION_TYPE":"U","GP_ID":"206788452","MEAN_MOTION_DDOT":"0.0000000000000","SEMIMAJOR_AXIS":"6917.877","TLE_LINE2":"2 49444  53.2170 167.5691 0002993  41.2023 318.9195 15.08841254 34501","REF_FRAME":"TEME","CENTER_NAME":"EARTH","EPOCH":"2022-06-24T16:00:57.890016","RCS_SIZE":"LARGE","FILE":"3501798","PERIAPSIS":"537.671","ARG_OF_PERICENTER":"41.2023","PERIOD":"95.437","MEAN_ELEMENT_THEORY":"SGP4","RA_OF_ASC_NODE":"167.5691","TLE_LINE1":"1 49444U 21104AN  22175.66733669 -.00000951  00000-0 -41593-4 0  9999","REV_AT_EPOCH":"3450","INCLINATION":"53.2170","MEAN_MOTION_DOT":"-0.00000951","LAUNCH_DATE":"2021-11-13","TIME_SYSTEM":"UTC","SITE":"AFETR","EPHEMERIS_TYPE":"0","DECAY_DATE":null,"OBJECT_NAME":"STARLINK-3126","OBJECT_TYPE":"PAYLOAD","MEAN_MOTION":"15.08841254","ECCENTRICITY":"0.00029930"},{"PERIAPSIS":"537.571","ARG_OF_PERICENTER":"34.8712","FILE":"3501501","RCS_SIZE":"LARGE","EPOCH":"2022-06-24T06:48:31.584960","TIME_SYSTEM":"UTC","LAUNCH_DATE":"2021-11-13","MEAN_MOTION_DOT":"-0.00000396","REV_AT_EPOCH":"3430","INCLINATION":"53.2168","MEAN_ELEMENT_THEORY":"SGP4","PERIOD":"95.438","RA_OF_ASC_NODE":"179.2977","TLE_LINE1":"1 49445U 21104AP  22175.28369890 -.00000396  00000-0 -67661-5 0  9997","OBJECT_NAME":"STARLINK-3122","EPHEMERIS_TYPE":"0","DECAY_DATE":null,"SITE":"AFETR","ECCENTRICITY":"0.00031590","MEAN_MOTION":"15.08836445","OBJECT_TYPE":"PAYLOAD","MEAN_ANOMALY":"325.2486","NORAD_CAT_ID":"49445","CLASSIFICATION_TYPE":"U","APOAPSIS":"541.942","COUNTRY_CODE":"US","BSTAR":"-0.00000676610000","ELEMENT_SET_NO":"999","OBJECT_ID":"2021-104AP","REF_FRAME":"TEME","SEMIMAJOR_AXIS":"6917.891","TLE_LINE2":"2 49445  53.2168 179.2977 0003159  34.8712 325.2486 15.08836445 34302","GP_ID":"206758541","MEAN_MOTION_DDOT":"0.0000000000000","CENTER_NAME":"EARTH"},{"OBJECT_TYPE":"PAYLOAD","MEAN_MOTION":"15.08844230","ECCENTRICITY":"0.00033350","SITE":"AFETR","DECAY_DATE":null,"EPHEMERIS_TYPE":"0","OBJECT_NAME":"STARLINK-3099","TLE_LINE1":"1 49446U 21104AQ  22175.39870276  .00001141  00000-0  89796-4 0  9994","PERIOD":"95.437","RA_OF_ASC_NODE":"168.7748","MEAN_ELEMENT_THEORY":"SGP4","INCLINATION":"53.2170","REV_AT_EPOCH":"3446","MEAN_MOTION_DOT":"0.00001141","LAUNCH_DATE":"2021-11-13","TIME_SYSTEM":"UTC","EPOCH":"2022-06-24T09:34:07.918464","RCS_SIZE":"LARGE","FILE":"3501501","ARG_OF_PERICENTER":"43.6569","PERIAPSIS":"537.425","CENTER_NAME":"EARTH","MEAN_MOTION_DDOT":"0.0000000000000","GP_ID":"206758296","TLE_LINE2":"2 49446  53.2170 168.7748 0003335  43.6569 316.4687 15.08844230 34462","SEMIMAJOR_AXIS":"6917.867","REF_FRAME":"TEME","OBJECT_ID":"2021-104AQ","BSTAR":"0.00008979600000","ELEMENT_SET_NO":"999","COUNTRY_CODE":"US","APOAPSIS":"542.040","CLASSIFICATION_TYPE":"U","NORAD_CAT_ID":"49446","MEAN_ANOMALY":"316.4687"},{"OBJECT_NAME":"STARLINK-3115","EPHEMERIS_TYPE":"0","DECAY_DATE":null,"SITE":"AFETR","ECCENTRICITY":"0.00032640","MEAN_MOTION":"15.08832711","OBJECT_TYPE":"PAYLOAD","PERIAPSIS":"537.510","ARG_OF_PERICENTER":"42.0555","FILE":"3501798","RCS_SIZE":"LARGE","EPOCH":"2022-06-24T17:45:37.789344","LAUNCH_DATE":"2021-11-13","TIME_SYSTEM":"UTC","MEAN_MOTION_DOT":"-0.00000875","REV_AT_EPOCH":"3437","INCLINATION":"53.2163","PERIOD":"95.438","RA_OF_ASC_NODE":"177.2533","MEAN_ELEMENT_THEORY":"SGP4","TLE_LINE1":"1 49447U 21104AR  22175.74002071 -.00000875  00000-0 -36867-4 0  9990","REF_FRAME":"TEME","SEMIMAJOR_AXIS":"6917.903","TLE_LINE2":"2 49447  53.2163 177.2533 0003264  42.0555 318.0687 15.08832711 34370","GP_ID":"206790205","MEAN_MOTION_DDOT":"0.0000000000000","CENTER_NAME":"EARTH","MEAN_ANOMALY":"318.0687","NORAD_CAT_ID":"49447","CLASSIFICATION_TYPE":"U","APOAPSIS":"542.026","COUNTRY_CODE":"US","ELEMENT_SET_NO":"999","BSTAR":"-0.00003686700000","OBJECT_ID":"2021-104AR"},{"MEAN_MOTION_DOT":"0.00001345","LAUNCH_DATE":"2021-11-13","TIME_SYSTEM":"UTC","TLE_LINE1":"1 49448U 21104AS  22175.41984996  .00001345  00000-0  10261-3 0  9990","PERIOD":"95.437","RA_OF_ASC_NODE":"178.6825","MEAN_ELEMENT_THEORY":"SGP4","INCLINATION":"53.2152","REV_AT_EPOCH":"3432","FILE":"3501501","ARG_OF_PERICENTER":"42.3341","PERIAPSIS":"537.665","EPOCH":"2022-06-24T10:04:35.036544","RCS_SIZE":"LARGE","MEAN_MOTION":"15.08845632","ECCENTRICITY":"0.00029820","OBJECT_TYPE":"PAYLOAD","DECAY_DATE":null,"EPHEMERIS_TYPE":"0","OBJECT_NAME":"STARLINK-3097","SITE":"AFETR","CLASSIFICATION_TYPE":"U","OBJECT_ID":"2021-104AS","BSTAR":"0.00010261000000","ELEMENT_SET_NO":"999","COUNTRY_CODE":"US","APOAPSIS":"541.791","MEAN_ANOMALY":"317.7880","NORAD_CAT_ID":"49448","CENTER_NAME":"EARTH","REF_FRAME":"TEME","MEAN_MOTION_DDOT":"0.0000000000000","GP_ID":"206757794","TLE_LINE2":"2 49448  53.2152 178.6825 0002982  42.3341 317.7880 15.08845632 34322","SEMIMAJOR_AXIS":"6917.863"},{"MEAN_ANOMALY":"324.6240","NORAD_CAT_ID":"49449","CLASSIFICATION_TYPE":"U","COUNTRY_CODE":"US","APOAPSIS":"541.869","OBJECT_ID":"2021-104AT","BSTAR":"0.00007889300000","ELEMENT_SET_NO":"999","REF_FRAME":"TEME","TLE_LINE2":"2 49449  53.2187 177.2595 0003034  35.4954 324.6240 15.08831832 34371","SEMIMAJOR_AXIS":"6917.905","MEAN_MOTION_DDOT":"0.0000000000000","GP_ID":"206789203","CENTER_NAME":"EARTH","ARG_OF_PERICENTER":"35.4954","PERIAPSIS":"537.671","FILE":"3501798","RCS_SIZE":"LARGE","EPOCH":"2022-06-24T17:40:20.292672","LAUNCH_DATE":"2021-11-13","TIME_SYSTEM":"UTC","MEAN_MOTION_DOT":"0.00000967","INCLINATION":"53.2187","REV_AT_EPOCH":"3437","TLE_LINE1":"1 49449U 21104AT  22175.73634598  .00000967  00000-0  78893-4 0  9991","PERIOD":"95.438","MEAN_ELEMENT_THEORY":"SGP4","RA_OF_ASC_NODE":"177.2595","OBJECT_NAME":"STARLINK-3137","DECAY_DATE":null,"EPHEMERIS_TYPE":"0","SITE":"AFETR","ECCENTRICITY":"0.00030340","MEAN_MOTION":"15.08831832","OBJECT_TYPE":"PAYLOAD"},{"REF_FRAME":"TEME","SEMIMAJOR_AXIS":"6917.851","TLE_LINE2":"2 49450  53.2145 177.2302 0002955  38.4683 321.6520 15.08849630 34638","GP_ID":"206789454","MEAN_MOTION_DDOT":"0.0000000000000","CENTER_NAME":"EARTH","MEAN_ANOMALY":"321.6520","NORAD_CAT_ID":"49450","CLASSIFICATION_TYPE":"U","APOAPSIS":"541.760","COUNTRY_CODE":"US","BSTAR":"0.00007477300000","ELEMENT_SET_NO":"999","OBJECT_ID":"2021-104AU","OBJECT_NAME":"STARLINK-3127","EPHEMERIS_TYPE":"0","DECAY_DATE":null,"SITE":"AFETR","ECCENTRICITY":"0.00029550","MEAN_MOTION":"15.08849630","OBJECT_TYPE":"PAYLOAD","PERIAPSIS":"537.672","ARG_OF_PERICENTER":"38.4683","FILE":"3501798","RCS_SIZE":"LARGE","EPOCH":"2022-06-24T17:50:54.423744","TIME_SYSTEM":"UTC","LAUNCH_DATE":"2021-11-13","MEAN_MOTION_DOT":"0.00000902","REV_AT_EPOCH":"3463","INCLINATION":"53.2145","PERIOD":"95.437","RA_OF_ASC_NODE":"177.2302","MEAN_ELEMENT_THEORY":"SGP4","TLE_LINE1":"1 49450U 21104AU  22175.74368546  .00000902  00000-0  74773-4 0  9993"},{"MEAN_MOTION":"15.08832709","ECCENTRICITY":"0.00031270","OBJECT_TYPE":"PAYLOAD","DECAY_DATE":null,"EPHEMERIS_TYPE":"0","OBJECT_NAME":"STARLINK-3125","SITE":"AFETR","MEAN_MOTION_DOT":"-0.00001246","TIME_SYSTEM":"UTC","LAUNCH_DATE":"2021-11-13","TLE_LINE1":"1 49451U 21104AV  22175.73266251 -.00001246  00000-0 -60150-4 0  9991","PERIOD":"95.438","RA_OF_ASC_NODE":"177.2702","MEAN_ELEMENT_THEORY":"SGP4","INCLINATION":"53.2174","REV_AT_EPOCH":"3437","FILE":"3501798","ARG_OF_PERICENTER":"38.8281","PERIAPSIS":"537.604","EPOCH":"2022-06-24T17:35:02.040864","RCS_SIZE":"LARGE","CENTER_NAME":"EARTH","REF_FRAME":"TEME","MEAN_MOTION_DDOT":"0.0000000000000","GP_ID":"206789705","TLE_LINE2":"2 49451  53.2174 177.2702 0003127  38.8281 321.2936 15.08832709 34372","SEMIMAJOR_AXIS":"6917.903","CLASSIFICATION_TYPE":"U","OBJECT_ID":"2021-104AV","BSTAR":"-0.00006015000000","ELEMENT_SET_NO":"999","COUNTRY_CODE":"US","APOAPSIS":"541.931","MEAN_ANOMALY":"321.2936","NORAD_CAT_ID":"49451"}];
